NORAD_CAT_ID,OBJECT_NAME,OBJECT_TYPE,EPOCH,MEAN_MOTION,ECCENTRICITY,INCLINATION,RA_OF_ASC_NODE,ARG_OF_PERICENTER,MEAN_ANOMALY,BSTAR,MEAN_MOTION_DOT,MEAN_MOTION_DDOT,TLE_LINE0,TLE_LINE1,TLE_LINE2,SEMIMAJOR_AXIS,PERIOD,APOGEE,PERIGEE,DECAYED
52263.0,STARLINK-3786,PAYLOAD,2022-11-13 01:24:24,15.08840475,0.0002025,53.2172,152.8322,50.6315,309.4857,9.5184e-05,1.227e-05,0.0,0 STARLINK-3786,1 52263U 22041C   22317.05861406  .00001227  00000-0  95184-4 0  9995,2 52263  53.2172 152.8322 0002025  50.6315 309.4857 15.08840475 32500,6917.879,95.438,541.145,538.3430000000002,0.0
52263.0,STARLINK-3786,PAYLOAD,2022-11-13 18:53:39,15.08834152,0.0001897,53.2172,149.5609,49.7361,310.3797,9.2832e-05,1.189e-05,0.0,0 STARLINK-3786,1 52263U 22041C   22317.78726098  .00001189  00000-0  92832-4 0  9996,2 52263  53.2172 149.5609 0001897  49.7361 310.3797 15.08834152 32618,6917.898,95.438,541.076,538.451,0.0
52263.0,STARLINK-3786,PAYLOAD,2022-11-14 06:01:21,15.08833634,0.0001946,53.2172,147.4794,49.1761,310.94,6.2813e-05,7.11e-06,0.0,0 STARLINK-3786,1 52263U 22041C   22318.25094422  .00000711  00000-0  62813-4 0  9994,2 52263  53.2172 147.4794 0001946  49.1761 310.9400 15.08833634 31477,6917.9,95.438,541.111,538.419,0.0
52263.0,STARLINK-3786,PAYLOAD,2022-11-14 18:44:26,15.08839155,0.0001964,53.2173,145.1006,49.1047,311.0115,6.7577e-05,7.87e-06,0.0,0 STARLINK-3786,1 52263U 22041C   22318.78086130  .00000787  00000-0  67577-4 0  9994,2 52263  53.2173 145.1006 0001964  49.1047 311.0115 15.08839155 31554,6917.8830000000025,95.438,541.107,538.389,0.0
52263.0,STARLINK-3786,PAYLOAD,2022-11-15 01:05:58,15.08842425,0.0001965,53.2173,143.9108,49.3244,310.7919,3.1745e-05,2.17e-06,0.0,0 STARLINK-3786,1 52263U 22041C   22319.04581946  .00000217  00000-0  31745-4 0  9995,2 52263  53.2173 143.9108 0001965  49.3244 310.7919 15.08842425 32806,6917.873000000001,95.437,541.097,538.379,0.0
52263.0,STARLINK-3786,PAYLOAD,2022-11-15 12:13:40,15.08845152,0.0001976,53.2174,141.8292,49.5981,310.5183,4.685e-05,4.58e-06,0.0,0 STARLINK-3786,1 52263U 22041C   22319.50949654  .00000458  00000-0  46850-4 0  9990,2 52263  53.2174 141.8292 0001976  49.5981 310.5183 15.08845152 31664,6917.865,95.437,541.097,538.363,0.0
52263.0,STARLINK-3786,PAYLOAD,2022-11-15 18:35:12,15.08842698,0.0002022,53.2173,140.6402,49.3261,310.7907,0.00014348,1.996e-05,0.0,0 STARLINK-3786,1 52263U 22041C   22319.77445541  .00001996  00000-0  14348-3 0  9999,2 52263  53.2173 140.6402 0002022  49.3261 310.7907 15.08842698 31708,6917.871999999999,95.437,541.136,538.3380000000002,0.0
52263.0,STARLINK-3786,PAYLOAD,2022-11-16 12:04:26,15.08848373,0.0002054,53.2172,137.3691,50.485,309.6323,0.00014911,2.086e-05,0.0,0 STARLINK-3786,1 52263U 22041C   22320.50308984  .00002086  00000-0  14911-3 0  9998,2 52263  53.2172 137.3691 0002054  50.4850 309.6323 15.08848373 31819,6917.855,95.437,541.141,538.299,0.0
52263.0,STARLINK-3786,PAYLOAD,2022-11-16 18:25:59,15.08844343,0.0001967,53.2182,136.1793,48.6283,311.4878,0.00010989,1.461e-05,0.0,0 STARLINK-3786,1 52263U 22041C   22320.76805238  .00001461  00000-0  10989-3 0  9997,2 52263  53.2182 136.1793 0001967  48.6283 311.4878 15.08844343 33069,6917.8669999999975,95.437,541.0930000000002,538.371,0.0
52263.0,STARLINK-3786,PAYLOAD,2022-11-17 15:06:00,15.08839869,0.0002021,53.2181,132.3146,52.0697,308.0478,-1.3921e-05,-5.1e-06,0.0,0 STARLINK-3786,1 52263U 22041C   22321.62917679 -.00000510  00000-0 -13921-4 0  9992,2 52263  53.2181 132.3146 0002021  52.0697 308.0478 15.08839869 31982,6917.880999999999,95.438,541.144,538.3480000000002,0.0
52263.0,STARLINK-3786,PAYLOAD,2022-11-17 23:02:56,15.0884587,0.0002055,53.2179,130.8271,43.6491,316.4663,-3.2725e-06,-3.4e-06,0.0,0 STARLINK-3786,1 52263U 22041C   22321.96037154 -.00000340  00000-0 -32725-5 0  9995,2 52263  53.2179 130.8271 0002055  43.6491 316.4663 15.08845870 33245,6917.861999999999,95.437,541.149,538.306,0.0
52263.0,STARLINK-3786,PAYLOAD,2022-11-18 11:46:00,15.088482999999998,0.0002074,53.218,128.4484,49.5141,310.6032,2.248e-05,7e-07,0.0,0 STARLINK-3786,1 52263U 22041C   22322.49028755  .00000070  00000-0  22480-4 0  9995,2 52263  53.2180 128.4484 0002074  49.5141 310.6032 15.08848300 32116,6917.855,95.437,541.155,538.285,0.0
52263.0,STARLINK-3786,PAYLOAD,2022-11-19 02:04:30,15.08822421,0.0001978,53.2174,125.7712,52.68,307.4372,-5.2344e-05,-1.121e-05,0.0,0 STARLINK-3786,1 52263U 22041C   22323.08646673 -.00001121  00000-0 -52344-4 0  9998,2 52263  53.2174 125.7712 0001978  52.6800 307.4372 15.08822421 33413,6917.934,95.439,541.1669999999998,538.431,0.0
52263.0,STARLINK-3786,PAYLOAD,2022-11-19 10:01:26,15.08826844,0.0001965,53.2171,124.2846,54.1315,305.9859,-6.7882e-05,-1.368e-05,0.0,0 STARLINK-3786,1 52263U 22041C   22323.41766802 -.00001368  00000-0 -67882-4 0  9998,2 52263  53.2171 124.2846 0001965  54.1315 305.9859 15.08826844 32253,6917.920999999999,95.438,541.145,538.4259999999998,0.0
52263.0,STARLINK-3786,PAYLOAD,2022-11-19 21:09:08,15.08827761,0.0002043,53.2175,122.2036,51.2378,308.8797,-6.399e-05,-1.306e-05,0.0,0 STARLINK-3786,1 52263U 22041C   22323.88135032 -.00001306  00000-0 -63990-4 0  9992,2 52263  53.2175 122.2036 0002043  51.2378 308.8797 15.08827761 32321,6917.918000000002,95.438,541.196,538.369,0.0
52263.0,STARLINK-3786,PAYLOAD,2022-11-20 01:55:18,15.0882905,0.0002051,53.2175,121.3116,51.5103,308.6072,-5.1124e-05,-1.102e-05,0.0,0 STARLINK-3786,1 52263U 22041C   22324.08007047 -.00001102  00000-0 -51124-4 0  9999,2 52263  53.2175 121.3116 0002051  51.5103 308.6072 15.08829050 33562,6917.9140000000025,95.438,541.198,538.36,0.0
52263.0,STARLINK-3786,PAYLOAD,2022-11-20 11:27:37,15.08828223,0.0002068,53.2176,119.5273,52.2435,307.8744,-2.8026e-06,-3.33e-06,0.0,0 STARLINK-3786,1 52263U 22041C   22324.47751196 -.00000333  00000-0 -28026-5 0  9994,2 52263  53.2176 119.5273 0002068  52.2435 307.8744 15.08828223 32411,6917.916,95.438,541.212,538.351,0.0
52263.0,STARLINK-3786,PAYLOAD,2022-11-20 20:59:55,15.088317300000002,0.000208,53.2177,117.7432,52.54,307.5781,2.469800000000001e-05,1.05e-06,0.0,0 STARLINK-3786,1 52263U 22041C   22324.87495147  .00000105  00000-0  24698-4 0  9994,2 52263  53.2177 117.7432 0002080  52.5400 307.5781 15.08831730 32479,6917.906,95.438,541.21,538.332,0.0
52263.0,STARLINK-3786,PAYLOAD,2022-11-21 03:21:28,15.08828213,0.0002078,53.2178,116.5537,52.8485,307.2696,0.00011352,1.518e-05,0.0,0 STARLINK-3786,1 52263U 22041C   22325.13991276  .00001518  00000-0  11352-3 0  9999,2 52263  53.2178 116.5537 0002078  52.8485 307.2696 15.08828213 33729,6917.916,95.438,541.219,538.344,0.0
52263.0,STARLINK-3786,PAYLOAD,2022-11-21 11:18:24,15.08831334,0.0002076,53.2178,115.0669,53.4295,306.6888,0.00016058,2.268e-05,0.0,0 STARLINK-3786,1 52263U 22041C   22325.47111269  .00002268  00000-0  16058-3 0  9993,2 52263  53.2178 115.0669 0002076  53.4295 306.6888 15.08831334 32568,6917.906999999997,95.438,541.2080000000002,538.336,0.0
52263.0,STARLINK-3786,PAYLOAD,2022-11-21 20:50:42,15.08838275,0.00021,53.2179,113.2828,53.6699,306.4487,0.00017651,2.522e-05,0.0,0 STARLINK-3786,1 52263U 22041C   22325.86855009  .00002522  00000-0  17651-3 0  9996,2 52263  53.2179 113.2828 0002100  53.6699 306.4487 15.08838275 32625,6917.886,95.438,541.203,538.298,0.0
52263.0,STARLINK-3786,PAYLOAD,2022-11-22 04:47:38,15.08843786,0.00021,53.218,111.796,54.1579,305.9608,0.00019228,2.774e-05,0.0,0 STARLINK-3786,1 52263U 22041C   22326.19974747  .00002774  00000-0  19228-3 0  9995,2 52263  53.2180 111.7960 0002100  54.1579 305.9608 15.08843786 33881,6917.869000000002,95.437,541.187,538.281,0.0
52263.0,STARLINK-3786,PAYLOAD,2022-11-22 14:19:56,15.08851273,0.0002106,53.218,110.0118,54.7411,305.3778,0.00022936,3.365e-05,0.0,0 STARLINK-3786,1 52263U 22041C   22326.59718289  .00003365  00000-0  22936-3 0  9993,2 52263  53.2180 110.0118 0002106  54.7411 305.3778 15.08851273 32730,6917.846,95.437,541.168,538.254,0.0
52263.0,STARLINK-3786,PAYLOAD,2022-11-22 20:41:29,15.08855392,0.000215,53.2169,108.822,54.5483,305.5709,0.00029363,4.39e-05,0.0,0 STARLINK-3786,1 52263U 22041C   22326.86214281  .00004390  00000-0  29363-3 0  9996,2 52263  53.2169 108.8220 0002150  54.5483 305.5709 15.08855392 32778,6917.833000000001,95.437,541.186,538.211,0.0
52263.0,STARLINK-3786,PAYLOAD,2022-11-23 10:59:57,15.08849582,0.0002095,53.217,106.1457,55.2176,304.9013,0.00013786,1.907e-05,0.0,0 STARLINK-3786,1 52263U 22041C   22327.45830331  .00001907  00000-0  13786-3 0  9995,2 52263  53.2170 106.1457 0002095  55.2176 304.9013 15.08849582 34078,6917.851,95.437,541.165,538.2669999999998,0.0
52263.0,STARLINK-3786,PAYLOAD,2022-11-23 12:35:20,15.08850656,0.0002122,53.217,105.8483,54.2773,305.8416,0.00014257,1.982e-05,0.0,0 STARLINK-3786,1 52263U 22041C   22327.52454240  .00001982  00000-0  14257-3 0  9991,2 52263  53.2170 105.8483 0002122  54.2773 305.8416 15.08850656 32873,6917.848000000001,95.437,541.181,538.245,0.0
52263.0,STARLINK-3786,PAYLOAD,2022-11-23 18:56:52,15.08851698,0.000212,53.2171,104.659,54.3077,305.8112,0.0001117,1.49e-05,0.0,0 STARLINK-3786,1 52263U 22041C   22327.78949949  .00001490  00000-0  11170-3 0  9999,2 52263  53.2171 104.6590 0002120  54.3077 305.8112 15.08851698 32911,6917.845,95.437,541.1759999999998,538.243,0.0
52263.0,STARLINK-3786,PAYLOAD,2022-11-24 10:50:44,15.08846908,0.000208,53.2181,101.686,54.5962,305.5224,1.0998e-05,-1.13e-06,0.0,0 STARLINK-3786,1 52263U 22041C   22328.45190048 -.00000113  00000-0  10998-4 0  9992,2 52263  53.2181 101.6860 0002080  54.5962 305.5224 15.08846908 34224,6917.859,95.437,541.163,538.285,0.0
52263.0,STARLINK-3786,PAYLOAD,2022-11-24 20:23:02,15.08849863,0.0002082,53.2181,99.9019,53.9688,306.1497,-4.069e-06,-3.53e-06,0.0,0 STARLINK-3786,1 52263U 22041C   22328.84933545 -.00000353  00000-0 -40690-5 0  9992,2 52263  53.2181  99.9019 0002082  53.9688 306.1497 15.08849863 33073,6917.85,95.437,541.156,538.275,0.0
